{
  "type": "FeatureCollection",
  "features": [
    {
      "type": "Feature",
      "properties": {
        "norad_id": 34079,
        "name": "IRIDIUM 33 DEB",
        "group": "iridium-33-debris",
        "lat": -74.18580350236553,
        "lon": -157.92442209781956,
        "alt_km": 627.6338914980679,
        "timestamp": "2025-12-11T15:53:39.928342+00:00",
        "meta_object_name": "IRIDIUM 33 DEB",
        "meta_object_id": "1997-051CN",
        "meta_epoch": "2025-12-11T02:02:18.975840",
        "meta_mean_motion": 14.83452608,
        "meta_eccentricity": 0.00058366,
        "meta_inclination": 86.3778,
        "meta_ra_of_asc_node": 9.4145,
        "meta_arg_of_pericenter": 13.5557,
        "meta_mean_anomaly": 39.91,
        "meta_ephemeris_type": 0,
        "meta_classification_type": "U",
        "meta_norad_cat_id": 34079,
        "meta_element_set_no": 999,
        "meta_rev_at_epoch": 88953,
        "meta_bstar": 0.0024971347,
        "meta_mean_motion_dot": 0.00020578,
        "meta_mean_motion_ddot": 0,
        "tle_line1": "1 34079U 97051CN  25345.08494185  .00020578  00000+0  24971-2 0  9999",
        "tle_line2": "2 34079  86.3778   9.4145 0005836  13.5557  39.9100 14.83452608889531"
      },
      "geometry": {
        "type": "Point",
        "coordinates": [
          -157.92442209781956,
          -74.18580350236553
        ]
      }
    },
    {
      "type": "Feature",
      "properties": {
        "norad_id": 34088,
        "name": "IRIDIUM 33 DEB",
        "group": "iridium-33-debris",
        "lat": -44.403452136287015,
        "lon": 27.66851753149576,
        "alt_km": 603.4518586196145,
        "timestamp": "2025-12-11T15:53:39.928353+00:00",
        "meta_object_name": "IRIDIUM 33 DEB",
        "meta_object_id": "1997-051CX",
        "meta_epoch": "2025-12-11T03:26:50.826912",
        "meta_mean_motion": 14.91253391,
        "meta_eccentricity": 0.00055228,
        "meta_inclination": 86.3845,
        "meta_ra_of_asc_node": 31.4571,
        "meta_arg_of_pericenter": 182.298,
        "meta_mean_anomaly": 230.8134,
        "meta_ephemeris_type": 0,
        "meta_classification_type": "U",
        "meta_norad_cat_id": 34088,
        "meta_element_set_no": 999,
        "meta_rev_at_epoch": 88718,
        "meta_bstar": 0.0038535179,
        "meta_mean_motion_dot": 0.00038525,
        "meta_mean_motion_ddot": 0,
        "tle_line1": "1 34088U 97051CX  25345.14364383  .00038525  00000+0  38535-2 0  9994",
        "tle_line2": "2 34088  86.3845  31.4571 0005522 182.2980 230.8134 14.91253391887185"
      },
      "geometry": {
        "type": "Point",
        "coordinates": [
          27.66851753149576,
          -44.403452136287015
        ]
      }
    },
    {
      "type": "Feature",
      "properties": {
        "norad_id": 34091,
        "name": "IRIDIUM 33 DEB",
        "group": "iridium-33-debris",
        "lat": 2.1104198460072285,
        "lon": -112.80819358120526,
        "alt_km": 638.3565379815482,
        "timestamp": "2025-12-11T15:53:39.928364+00:00",
        "meta_object_name": "IRIDIUM 33 DEB",
        "meta_object_id": "1997-051DA",
        "meta_epoch": "2025-12-11T05:21:58.568256",
        "meta_mean_motion": 14.81622216,
        "meta_eccentricity": 0.00334359,
        "meta_inclination": 86.3407,
        "meta_ra_of_asc_node": 67.5278,
        "meta_arg_of_pericenter": 298.8387,
        "meta_mean_anomaly": 60.948,
        "meta_ephemeris_type": 0,
        "meta_classification_type": "U",
        "meta_norad_cat_id": 34091,
        "meta_element_set_no": 999,
        "meta_rev_at_epoch": 87844,
        "meta_bstar": 0.0076017863,
        "meta_mean_motion_dot": 0.00060805,
        "meta_mean_motion_ddot": 0,
        "tle_line1": "1 34091U 97051DA  25345.22359454  .00060805  00000+0  76018-2 0  9994",
        "tle_line2": "2 34091  86.3407  67.5278 0033435 298.8387  60.9480 14.81622216878446"
      },
      "geometry": {
        "type": "Point",
        "coordinates": [
          -112.80819358120526,
          2.1104198460072285
        ]
      }
    },
    {
      "type": "Feature",
      "properties": {
        "norad_id": 34097,
        "name": "IRIDIUM 33 DEB",
        "group": "iridium-33-debris",
        "lat": -67.40066678753689,
        "lon": -168.9303498481524,
        "alt_km": 810.6697771013678,
        "timestamp": "2025-12-11T15:53:39.928375+00:00",
        "meta_object_name": "IRIDIUM 33 DEB",
        "meta_object_id": "1997-051DG",
        "meta_epoch": "2025-12-11T01:20:58.856928",
        "meta_mean_motion": 14.3475402,
        "meta_eccentricity": 0.00827812,
        "meta_inclination": 86.2006,
        "meta_ra_of_asc_node": 2.1506,
        "meta_arg_of_pericenter": 7.6829,
        "meta_mean_anomaly": 352.5612,
        "meta_ephemeris_type": 0,
        "meta_classification_type": "U",
        "meta_norad_cat_id": 34097,
        "meta_element_set_no": 999,
        "meta_rev_at_epoch": 87095,
        "meta_bstar": 0.0020785728,
        "meta_mean_motion_dot": 6.141e-05,
        "meta_mean_motion_ddot": 0,
        "tle_line1": "1 34097U 97051DG  25345.05623677  .00006141  00000+0  20786-2 0  9996",
        "tle_line2": "2 34097  86.2006   2.1506 0082781   7.6829 352.5612 14.34754020870952"
      },
      "geometry": {
        "type": "Point",
        "coordinates": [
          -168.9303498481524,
          -67.40066678753689
        ]
      }
    },
    {
      "type": "Feature",
      "properties": {
        "norad_id": 34145,
        "name": "IRIDIUM 33 DEB",
        "group": "iridium-33-debris",
        "lat": 50.770173466627526,
        "lon": 148.35244300598697,
        "alt_km": 712.6813574672215,
        "timestamp": "2025-12-11T15:53:39.928385+00:00",
        "meta_object_name": "IRIDIUM 33 DEB",
        "meta_object_id": "1997-051DY",
        "meta_epoch": "2025-12-10T04:20:07.855008",
        "meta_mean_motion": 14.42258512,
        "meta_eccentricity": 0.0055658,
        "meta_inclination": 86.2123,
        "meta_ra_of_asc_node": 333.6661,
        "meta_arg_of_pericenter": 101.9259,
        "meta_mean_anomaly": 258.8189,
        "meta_ephemeris_type": 0,
        "meta_classification_type": "U",
        "meta_norad_cat_id": 34145,
        "meta_element_set_no": 999,
        "meta_rev_at_epoch": 87601,
        "meta_bstar": 0.0015884,
        "meta_mean_motion_dot": 5.356e-05,
        "meta_mean_motion_ddot": 0,
        "tle_line1": "1 34145U 97051DY  25344.18064647  .00005356  00000+0  15884-2 0  9999",
        "tle_line2": "2 34145  86.2123 333.6661 0055658 101.9259 258.8189 14.42258512876012"
      },
      "geometry": {
        "type": "Point",
        "coordinates": [
          148.35244300598697,
          50.770173466627526
        ]
      }
    },
    {
      "type": "Feature",
      "properties": {
        "norad_id": 34146,
        "name": "IRIDIUM 33 DEB",
        "group": "iridium-33-debris",
        "lat": 79.40084253198127,
        "lon": 149.9536123260972,
        "alt_km": 731.9823298342881,
        "timestamp": "2025-12-11T15:53:39.928396+00:00",
        "meta_object_name": "IRIDIUM 33 DEB",
        "meta_object_id": "1997-051DZ",
        "meta_epoch": "2025-12-11T07:11:49.754688",
        "meta_mean_motion": 14.4903398,
        "meta_eccentricity": 0.00253678,
        "meta_inclination": 86.2839,
        "meta_ra_of_asc_node": 350.4364,
        "meta_arg_of_pericenter": 226.7139,
        "meta_mean_anomaly": 144.2472,
        "meta_ephemeris_type": 0,
        "meta_classification_type": "U",
        "meta_norad_cat_id": 34146,
        "meta_element_set_no": 999,
        "meta_rev_at_epoch": 88086,
        "meta_bstar": 0.0016701168,
        "meta_mean_motion_dot": 6.382e-05,
        "meta_mean_motion_ddot": 0,
        "tle_line1": "1 34146U 97051DZ  25345.29988142  .00006382  00000+0  16701-2 0  9997",
        "tle_line2": "2 34146  86.2839 350.4364 0025367 226.7139 144.2472 14.49033980880869"
      },
      "geometry": {
        "type": "Point",
        "coordinates": [
          149.9536123260972,
          79.40084253198127
        ]
      }
    },
    {
      "type": "Feature",
      "properties": {
        "norad_id": 34159,
        "name": "IRIDIUM 33 DEB",
        "group": "iridium-33-debris",
        "lat": -35.58704539431688,
        "lon": -128.68178913278646,
        "alt_km": 765.3999394701987,
        "timestamp": "2025-12-11T15:53:39.928406+00:00",
        "meta_object_name": "IRIDIUM 33 DEB",
        "meta_object_id": "1997-051EN",
        "meta_epoch": "2025-12-11T04:52:32.970432",
        "meta_mean_motion": 14.38486874,
        "meta_eccentricity": 0.00259936,
        "meta_inclination": 86.3509,
        "meta_ra_of_asc_node": 48.8965,
        "meta_arg_of_pericenter": 293.3015,
        "meta_mean_anomaly": 66.5448,
        "meta_ephemeris_type": 0,
        "meta_classification_type": "U",
        "meta_norad_cat_id": 34159,
        "meta_element_set_no": 999,
        "meta_rev_at_epoch": 87937,
        "meta_bstar": 0.00056853921,
        "meta_mean_motion_dot": 1.761e-05,
        "meta_mean_motion_ddot": 0,
        "tle_line1": "1 34159U 97051EN  25345.20315938  .00001761  00000+0  56854-3 0  9999",
        "tle_line2": "2 34159  86.3509  48.8965 0025993 293.3015  66.5448 14.38486874879376"
      },
      "geometry": {
        "type": "Point",
        "coordinates": [
          -128.68178913278646,
          -35.58704539431688
        ]
      }
    }
  ]
}